{"spkid": "20480883", "covariance": {"elements": [{"title": "eccentricity", "value": ".5405769382327305", "units": null, "name": "e", "sigma": 2.41884627388318e-08, "label": "e"}, {"value": ".3109348380643984", "title": "perihelion distance", "units": "au", "name": "q", "sigma": 1.63789474476534e-08, "label": "q"}, {"label": "tp", "name": "tp", "sigma": 3.94682137339752e-06, "title": "time of perihelion passage", "value": "2456009.945359035697", "units": "TDB"}, {"label": "node", "title": "longitude of the ascending node", "value": "305.6610351296363", "units": "deg", "sigma": 3.68922444906519e-05, "name": "om"}, {"sigma": 3.44728746195662e-05, "name": "w", "value": "318.6910094656469", "title": "argument of perihelion", "units": "deg", "label": "peri"}, {"label": "i", "title": "inclination", "value": "4.835639419384084", "units": "deg", "sigma": 4.23306074102594e-06, "name": "i"}], "data": [["5.850817296678538E-16", "-3.961763945240206E-16", "-7.417723844492189E-14", "-2.253077779606654E-13", "1.914686787908225E-13", "2.099116807179216E-14", "-5.275842402728795E-25"], ["-3.961763945240206E-16", "2.682699194929912E-16", "5.029003961684462E-14", "1.535842790321606E-13", "-1.30614762558014E-13", "-1.433819397612981E-14", "2.939536558953887E-25"], ["-7.417723844492189E-14", "5.029003961684462E-14", "1.557739895350748E-11", "1.107132101328691E-10", "-1.007715336971013E-10", "-1.146189398933446E-11", "5.667366255325185E-22"], ["-2.253077779606654E-13", "1.535842790321606E-13", "1.107132101328691E-10", "1.361037703558034E-9", "-1.271119486147966E-9", "-1.498030621949416E-10", "7.363407577014198E-21"], ["1.914686787908225E-13", "-1.30614762558014E-13", "-1.007715336971013E-10", "-1.271119486147966E-9", "1.188379084536329E-9", "1.405014681905635E-10", "-6.865088135459431E-21"], ["2.099116807179216E-14", "-1.433819397612981E-14", "-1.146189398933446E-11", "-1.498030621949416E-10", "1.405014681905635E-10", "1.791880323721504E-11", "-8.688758207397274E-22"], ["-5.275842402728795E-25", "2.939536558953887E-25", "5.667366255325185E-22", "7.363407577014198E-21", "-6.865088135459431E-21", "-8.688758207397274E-22", "8.387374643778967E-31"]], "labels": ["e", "q", "tp", "node", "peri", "i", "A2"], "epoch": "2455927.5"}, "elements": [{"label": "e", "units": null, "value": ".5404284807056908", "title": "eccentricity", "name": "e", "sigma": "2.4168E-8"}, {"title": "semi-major axis", "value": ".6768504337481436", "units": "au", "name": "a", "sigma": "7.6131E-10", "label": "a"}, {"label": "q", "value": ".3110611821726465", "title": "perihelion distance", "units": "au", "sigma": "1.6351E-8", "name": "q"}, {"name": "i", "sigma": "4.2414E-6", "units": "deg", "title": "inclination; angle with respect to x-y ecliptic plane", "value": "4.853290407699069", "label": "i"}, {"value": "305.3161951483377", "title": "longitude of the ascending node", "units": "deg", "name": "om", "sigma": "3.6446E-5", "label": "node"}, {"units": "deg", "title": "argument of perihelion", "value": "319.0021667426155", "name": "w", "sigma": "3.4036E-5", "label": "peri"}, {"label": "M", "units": "deg", "value": "187.1441316009384", "title": "mean anomaly", "sigma": "1.0387E-5", "name": "ma"}, {"label": "tp", "sigma": "5.9848E-6", "name": "tp", "units": "TDB", "title": "time of perihelion passage", "value": "2461298.160540090020"}, {"label": "period", "sigma": "3.4316E-7", "name": "per", "value": "203.3936987967379", "title": "sidereal orbital period", "units": "d"}, {"label": "n", "name": "n", "sigma": "2.9863E-9", "units": "deg/d", "value": "1.769966336861631", "title": "mean motion"}, {"label": "Q", "sigma": "1.1727E-9", "name": "ad", "units": "au", "title": "aphelion distance", "value": "1.042639685323641"}], "epoch": "2461200.5"}